{
"type": "FeatureCollection",
"name": "police",
"crs": { "type": "name", "properties": { "name": "urn:ogc:def:crs:OGC:1.3:CRS84" } },
"features": [
{ "type": "Feature", "properties": { "id": "node/247177690", "@id": "node/247177690", "addr:city": null, "addr:district": null, "addr:housenumber": null, "addr:postcode": "641034", "addr:street": "Mettupalayam-Coimbatore Road", "amenity": "police", "amenity:ta": "காவல் நிலையம்", "mobile": null, "name": "Thudiyalur Police Station", "name:ta": "துடியலூர் காவல் நிலையம்", "opening_hours": "24/7", "ref": null, "website": null }, "geometry": { "type": "Point", "coordinates": [ 76.9412411, 11.0820675 ] } },
{ "type": "Feature", "properties": { "id": "node/803272013", "@id": "node/803272013", "addr:city": null, "addr:district": null, "addr:housenumber": null, "addr:postcode": null, "addr:street": null, "amenity": "police", "amenity:ta": null, "mobile": null, "name": "District Police Office", "name:ta": null, "opening_hours": null, "ref": null, "website": null }, "geometry": { "type": "Point", "coordinates": [ 76.9677805, 10.9990022 ] } },
{ "type": "Feature", "properties": { "id": "node/1051328308", "@id": "node/1051328308", "addr:city": null, "addr:district": null, "addr:housenumber": null, "addr:postcode": null, "addr:street": null, "amenity": "police", "amenity:ta": null, "mobile": null, "name": "Ukkadam Police Station(B2)", "name:ta": null, "opening_hours": null, "ref": null, "website": null }, "geometry": { "type": "Point", "coordinates": [ 76.9615341, 10.9890037 ] } },
{ "type": "Feature", "properties": { "id": "node/1051328344", "@id": "node/1051328344", "addr:city": null, "addr:district": null, "addr:housenumber": null, "addr:postcode": null, "addr:street": null, "amenity": "police", "amenity:ta": null, "mobile": null, "name": "Womens Police Station", "name:ta": "மகளிர் காவல் நிலையம்", "opening_hours": null, "ref": null, "website": null }, "geometry": { "type": "Point", "coordinates": [ 76.9683463, 11.0155688 ] } },
{ "type": "Feature", "properties": { "id": "node/1051328360", "@id": "node/1051328360", "addr:city": null, "addr:district": null, "addr:housenumber": null, "addr:postcode": null, "addr:street": null, "amenity": "police", "amenity:ta": null, "mobile": null, "name": "Kattor Police Station", "name:ta": "காட்டூர் காவல் நிலையம்", "opening_hours": null, "ref": null, "website": null }, "geometry": { "type": "Point", "coordinates": [ 76.968307, 11.0153033 ] } },
{ "type": "Feature", "properties": { "id": "node/1051328368", "@id": "node/1051328368", "addr:city": null, "addr:district": null, "addr:housenumber": null, "addr:postcode": null, "addr:street": null, "amenity": "police", "amenity:ta": null, "mobile": null, "name": "Madukkarai Police Station", "name:ta": null, "opening_hours": null, "ref": null, "website": null }, "geometry": { "type": "Point", "coordinates": [ 76.9490401, 10.911453 ] } },
{ "type": "Feature", "properties": { "id": "node/1470432055", "@id": "node/1470432055", "addr:city": "Gopalapuram", "addr:district": "COIMBATORE", "addr:housenumber": "C2", "addr:postcode": "641018", "addr:street": "Government Arts College Road", "amenity": "police", "amenity:ta": null, "mobile": "0422 230 9600", "name": "C2- Race Course Police Station, Coimbatore", "name:ta": null, "opening_hours": "24/7", "ref": null, "website": null }, "geometry": { "type": "Point", "coordinates": [ 76.9713177, 11.001692 ] } },
{ "type": "Feature", "properties": { "id": "node/1471854713", "@id": "node/1471854713", "addr:city": null, "addr:district": null, "addr:housenumber": null, "addr:postcode": null, "addr:street": null, "amenity": "police", "amenity:ta": null, "mobile": null, "name": "C-3 Saibaba Colony Police Station", "name:ta": "C-3 சாய்பாபா காலனி காவல் நிலையம்", "opening_hours": null, "ref": null, "website": null }, "geometry": { "type": "Point", "coordinates": [ 76.9515967, 11.0266348 ] } },
{ "type": "Feature", "properties": { "id": "node/1474350853", "@id": "node/1474350853", "addr:city": null, "addr:district": null, "addr:housenumber": null, "addr:postcode": null, "addr:street": null, "amenity": "police", "amenity:ta": null, "mobile": null, "name": "Saravanampatti Police Station", "name:ta": null, "opening_hours": null, "ref": null, "website": null }, "geometry": { "type": "Point", "coordinates": [ 77.0027116, 11.0747296 ] } },
{ "type": "Feature", "properties": { "id": "node/1474518443", "@id": "node/1474518443", "addr:city": null, "addr:district": null, "addr:housenumber": null, "addr:postcode": null, "addr:street": null, "amenity": "police", "amenity:ta": null, "mobile": null, "name": "Ramanathapuram police station", "name:ta": null, "opening_hours": null, "ref": null, "website": null }, "geometry": { "type": "Point", "coordinates": [ 76.997871, 10.9975827 ] } },
{ "type": "Feature", "properties": { "id": "node/1474803271", "@id": "node/1474803271", "addr:city": null, "addr:district": null, "addr:housenumber": null, "addr:postcode": null, "addr:street": null, "amenity": "police", "amenity:ta": null, "mobile": null, "name": "B1 POLICE STATION", "name:ta": null, "opening_hours": null, "ref": null, "website": null }, "geometry": { "type": "Point", "coordinates": [ 76.9591307, 10.9924847 ] } },
{ "type": "Feature", "properties": { "id": "node/3571694093", "@id": "node/3571694093", "addr:city": null, "addr:district": null, "addr:housenumber": null, "addr:postcode": null, "addr:street": null, "amenity": "police", "amenity:ta": null, "mobile": null, "name": "Rathinapuri Police Station", "name:ta": null, "opening_hours": null, "ref": null, "website": null }, "geometry": { "type": "Point", "coordinates": [ 76.9715748, 11.0250344 ] } },
{ "type": "Feature", "properties": { "id": "node/5338402894", "@id": "node/5338402894", "addr:city": null, "addr:district": null, "addr:housenumber": null, "addr:postcode": null, "addr:street": null, "amenity": "police", "amenity:ta": null, "mobile": null, "name": "Karunya nagar police station", "name:ta": null, "opening_hours": null, "ref": null, "website": null }, "geometry": { "type": "Point", "coordinates": [ 76.7536848, 10.941951 ] } },
{ "type": "Feature", "properties": { "id": "node/12473835683", "@id": "node/12473835683", "addr:city": "Coimbatore", "addr:district": "Coimbatore", "addr:housenumber": "274", "addr:postcode": "641004", "addr:street": "Avinashi Road", "amenity": "police", "amenity:ta": null, "mobile": null, "name": "Peelamedu E2 Police Station", "name:ta": null, "opening_hours": "24/7", "ref": null, "website": "http://www.tnpolice.gov.in/" }, "geometry": { "type": "Point", "coordinates": [ 77.0101634, 11.0253639 ] } },
{ "type": "Feature", "properties": { "id": "node/12473896167", "@id": "node/12473896167", "addr:city": "Podanur", "addr:district": "Coimbatore", "addr:housenumber": "XX8P+85M", "addr:postcode": "641023", "addr:street": "Podanur Main Rd, Kadaiveethi, Amman Nagar", "amenity": "police", "amenity:ta": null, "mobile": "0422 241 0925", "name": "Podanur Police Station", "name:ta": null, "opening_hours": "24/7", "ref": null, "website": null }, "geometry": { "type": "Point", "coordinates": [ 76.9781012, 10.9677575 ] } },
{ "type": "Feature", "properties": { "id": "node/12473897891", "@id": "node/12473897891", "addr:city": "Puliakulam", "addr:district": "Coimbatore", "addr:housenumber": "245", "addr:postcode": "641045", "addr:street": "Puliakulam Rd, Ramasamy Nagar,", "amenity": "police", "amenity:ta": null, "mobile": null, "name": "Ramanathapuram Police Station", "name:ta": null, "opening_hours": "24/7", "ref": null, "website": null }, "geometry": { "type": "Point", "coordinates": [ 76.9916717, 11.0028259 ] } },
{ "type": "Feature", "properties": { "id": "node/12473901192", "@id": "node/12473901192", "addr:city": "Gandhipuram", "addr:district": "Coimbatore", "addr:housenumber": "2X89+279", "addr:postcode": "641044", "addr:street": "Sathy Rd, ATT Colony, Gopalapuram", "amenity": "police", "amenity:ta": null, "mobile": "0422 230 2005", "name": "C1 Katoor Police Station", "name:ta": null, "opening_hours": "24/7", "ref": null, "website": null }, "geometry": { "type": "Point", "coordinates": [ 76.968262, 11.0145917 ] } },
{ "type": "Feature", "properties": { "id": "node/12473949936", "@id": "node/12473949936", "addr:city": "Singanallur", "addr:district": "Coimbatore", "addr:housenumber": null, "addr:postcode": "641005", "addr:street": "Bus Stand", "amenity": "police", "amenity:ta": null, "mobile": null, "name": "Out Post Police Station - Singanallur", "name:ta": null, "opening_hours": null, "ref": null, "website": null }, "geometry": { "type": "Point", "coordinates": [ 77.0288423, 11.0025957 ] } },
{ "type": "Feature", "properties": { "id": "node/12473970775", "@id": "node/12473970775", "addr:city": "Ganapathy", "addr:district": "Coimbatore", "addr:housenumber": "2XG9+3JX", "addr:postcode": "641006", "addr:street": "P.M.Swamy Colony, Tatabad, PM Samy Colony, Rathinapuri", "amenity": "police", "amenity:ta": null, "mobile": "0422 252 0300", "name": "Rathinapuri B-15 Police Station", "name:ta": null, "opening_hours": "24/7", "ref": null, "website": null }, "geometry": { "type": "Point", "coordinates": [ 76.9689359, 11.0252974 ] } },
{ "type": "Feature", "properties": { "id": "node/12473983454", "@id": "node/12473983454", "addr:city": "Thudiyalur", "addr:district": "Coimbatore", "addr:housenumber": "3WJR+QGX", "addr:postcode": "641022", "addr:street": "Nagapattinam , Gundlupet Hwy, TNP Nagar,Kurudampalayam", "amenity": "police", "amenity:ta": null, "mobile": "0422 264 2990", "name": "Thudiyalur Police Station", "name:ta": null, "opening_hours": "24/7", "ref": null, "website": null }, "geometry": { "type": "Point", "coordinates": [ 76.9412392, 11.0819434 ] } }
]
}
